[
    {
        "Altitude(m)": 604983.053061247,
        "Argument of Periapsis(deg)": 0.0,
        "Eccentricity": 0.0,
        "Inclination(deg)": 60.0,
        "Latitude(deg)": -0.09272475231907377,
        "Longitude(deg)": -119.91608371934406,
        "Mean Anomaly(deg)": 180.00000000000003,
        "RAAN(deg)": 160.0,
        "Satellite Name": "Test1 715",
        "Satellite Number": 715,
        "Semi-Major Axis(m)": 6980739.136638005,
        "Time(s)": 0
    },
    {
        "Altitude(m)": 605055.3330609445,
        "Argument of Periapsis(deg)": 0.00010418945913296404,
        "Eccentricity": 0.0,
        "Inclination(deg)": 60.0,
        "Latitude(deg)": -0.6331349778621437,
        "Longitude(deg)": -119.64795950560956,
        "Mean Anomaly(deg)": 180.62010614546185,
        "RAAN(deg)": 159.99957995086024,
        "Satellite Name": "Test1 715",
        "Satellite Number": 715,
        "Semi-Major Axis(m)": 6980739.136638005,
        "Time(s)": 10
    }
]